{"type": "FeatureCollection", "features": [{"type": "Feature", "properties": {"nasa_id": "art002e009611", "utc": "2026-04-06T19:33:59.990Z", "trust": "control_hull", "instrument": "nkd5015"}, "geometry": {"type": "Polygon", "coordinates": [[[270.09418114, 18.57597191], [270.18582955, 15.58105728], [270.66161646, 10.54119219], [274.94016555, 7.68307661], [277.65804401, 7.34395684], [280.34260525, 7.36788255], [285.28029895, 7.97529862], [293.11250635, 9.0031167], [294.68264723, 10.9073304], [295.70570927, 15.34640184], [283.8912416, 26.43073662], [272.35357888, 23.58198973], [271.22033344, 22.31584768], [270.17845213, 19.7064774], [270.09418114, 18.57597191]]]}}, {"type": "Feature", "properties": {"nasa_id": "art002e009684", "utc": "2026-04-06T19:34:53.290Z", "trust": "control_hull", "instrument": "nkd5015"}, "geometry": {"type": "Polygon", "coordinates": [[[225.29440195, -9.35324504], [225.33015698, -24.01168294], [228.7877444, -27.23957077], [250.85492344, -45.19153856], [258.5399448, -40.32625511], [262.66000608, -37.49882052], [271.67455607, -27.89537034], [273.44029018, -25.44900379], [284.74809566, -8.5908905], [274.36682152, -0.2275138], [273.3139262, -0.12605037], [247.05746625, -0.10490175], [236.3102326, -0.12739234], [232.68807083, -0.27011214], [227.97225775, -2.39411941], [227.39402022, -2.83512529], [226.04835624, -6.42099289], [225.29440195, -9.35324504]]]}}, {"type": "Feature", "properties": {"nasa_id": "art002e009725", "utc": "2026-04-06T19:34:59.420Z", "trust": "control_hull", "instrument": "nkd5015"}, "geometry": {"type": "Polygon", "coordinates": [[[225.15743226, 22.63643629], [225.1626572, 7.76400482], [227.10923697, 2.07260274], [230.90942567, 0.50174262], [232.72908332, 0.11740061], [239.49924366, 0.11348987], [250.75340065, 0.11010422], [274.59977198, 0.11848997], [281.47964183, 6.02729086], [283.70127144, 10.90528227], [283.73004162, 17.20349189], [277.77880282, 31.10391606], [257.23576638, 45.74017285], [251.10861112, 44.79853846], [225.1926726, 26.60988656], [225.1708594, 25.51016104], [225.15743226, 22.63643629]]]}}, {"type": "Feature", "properties": {"nasa_id": "art002e009770", "utc": "2026-04-06T19:35:19.090Z", "trust": "control_hull", "instrument": "nkd5015"}, "geometry": {"type": "Polygon", "coordinates": [[[213.81119364, 36.61915707], [217.54166445, 29.82918092], [218.77466239, 27.59967414], [224.11617323, 27.81683798], [234.47749753, 29.82287476], [245.86547881, 32.22201145], [247.37263389, 33.00898563], [247.41386443, 33.98047387], [247.4137955, 35.41265999], [247.31159402, 36.61910939], [246.99937975, 38.86386458], [246.71810165, 39.45763609], [246.44318363, 39.8775787], [244.73952599, 40.50442985], [236.38229724, 40.91532136], [229.76236115, 40.91348576], [222.81477188, 40.1557479], [221.1590588, 39.89039622], [217.3500413, 38.53764471], [213.81119364, 36.61915707]]]}}, {"type": "Feature", "properties": {"nasa_id": "art002e009786", "utc": "2026-04-06T19:35:28.760Z", "trust": "control_hull", "instrument": "nkd5015"}, "geometry": {"type": "Polygon", "coordinates": [[[215.96340445, -2.98861813], [223.91288507, -15.52055252], [228.92148552, -18.04741652], [235.25711325, -20.41917143], [239.16948149, -19.86757396], [247.16728711, -16.86561199], [247.41288881, -16.38412338], [247.41481884, -8.11057666], [247.40432563, 1.5784619], [247.32370973, 5.51847224], [245.48563129, 11.87131379], [235.17941626, 10.01499195], [225.01097837, 5.62067438], [219.26827832, 2.92949314], [215.96340445, -2.98861813]]]}}, {"type": "Feature", "properties": {"nasa_id": "art002e009806", "utc": "2026-04-06T19:35:52.140Z", "trust": "control_hull", "instrument": "nkd5015"}, "geometry": {"type": "Polygon", "coordinates": [[[275.3672859, 10.82803272], [275.46617213, 9.33632627], [278.24837953, 8.14790656], [281.12492845, 7.994374], [288.0526726, 7.75399184], [295.99586074, 7.90785274], [301.28307092, 10.604203], [301.42677071, 13.30533839], [300.9385419, 15.7444764], [291.20044649, 24.37967918], [283.64428251, 26.03195467], [280.59401162, 25.23778406], [275.72630739, 22.39538195], [275.37244734, 16.02142072], [275.3672859, 10.82803272]]]}}, {"type": "Feature", "properties": {"nasa_id": "art002e009812", "utc": "2026-04-06T19:36:13.720Z", "trust": "control_hull", "instrument": "nkd5015"}, "geometry": {"type": "Polygon", "coordinates": [[[270.5084093, 23.26059695], [270.53600863, 22.16910413], [270.79579066, 17.17723048], [270.86693618, 15.82083829], [271.10608931, 14.48978175], [273.29284002, 11.07476208], [278.24837953, 8.14790656], [291.53349873, 7.67938998], [295.28766146, 14.95590335], [295.52701177, 18.51618419], [294.93909475, 19.77956308], [293.80021497, 21.51963578], [289.80334293, 26.03004254], [283.20597866, 28.79822425], [278.86730032, 29.51414257], [273.47397889, 29.04272038], [270.93614786, 26.91375711], [270.68584548, 25.32966023], [270.5084093, 23.26059695]]]}}, {"type": "Feature", "properties": {"nasa_id": "art002e009816", "utc": "2026-04-06T19:36:44.500Z", "trust": "control_hull", "instrument": "nkd5015"}, "geometry": {"type": "Polygon", "coordinates": [[[274.00454808, 6.79738111], [279.81116151, 7.03318576], [287.36160632, 7.34825187], [291.53349873, 7.67938998], [293.89385857, 9.32831321], [296.41734974, 13.99074842], [296.24629812, 15.50373692], [295.7185514, 16.69516968], [290.84632564, 20.18699788], [286.59590511, 22.54954223], [282.05855027, 24.20015306], [281.04078587, 24.52112092], [274.48217101, 24.11116077], [274.00510747, 14.31836164], [274.00454808, 6.79738111]]]}}, {"type": "Feature", "properties": {"nasa_id": "art002e009822", "utc": "2026-04-06T19:37:04.480Z", "trust": "control_hull", "instrument": "nkd5015"}, "geometry": {"type": "Polygon", "coordinates": [[[272.00570561, 5.37714276], [272.78019088, 3.31326418], [275.61088599, 0.07230828], [278.53125097, 0.06335122], [288.88788805, 0.06724308], [295.79635443, 3.80357948], [297.53076001, 6.81225079], [294.86072437, 12.40416723], [294.41609887, 12.88761143], [288.41686381, 18.42667645], [275.63814635, 22.70717789], [273.9023973, 20.50240199], [272.25756632, 17.88969274], [272.00570561, 5.37714276]]]}}, {"type": "Feature", "properties": {"nasa_id": "art002e009826", "utc": "2026-04-06T19:37:08.290Z", "trust": "control_hull", "instrument": "nkd5015"}, "geometry": {"type": "Polygon", "coordinates": [[[273.13034529, 14.0191261], [273.29284002, 11.07476208], [281.38105385, 7.1847724], [285.45985277, 6.24715014], [288.57965447, 5.85925185], [294.59100524, 5.13928596], [297.09956254, 10.51768657], [298.12620362, 13.9042513], [297.37996311, 15.49431632], [295.90457136, 18.3564831], [289.53405064, 24.20320111], [280.24812323, 24.29986967], [273.75495443, 23.52466943], [273.30751441, 19.13788326], [273.13034529, 14.0191261]]]}}, {"type": "Feature", "properties": {"nasa_id": "art002e009834", "utc": "2026-04-06T19:37:28.660Z", "trust": "control_hull", "instrument": "nkd5015"}, "geometry": {"type": "Polygon", "coordinates": [[[225.16066164, 7.76249421], [225.17863243, -3.26038656], [227.09253495, -7.58001581], [237.64379494, -17.05349263], [255.56798397, -18.24083364], [260.2944964, -18.26445091], [265.64605507, -17.79824197], [275.73350059, -14.51827819], [281.97927055, -11.30486363], [284.7298399, -9.26128972], [288.89201985, -1.14521238], [288.85944263, 4.98403206], [288.38746531, 7.97270831], [283.72319107, 16.69448619], [280.79088071, 22.07328073], [269.13732403, 29.90315857], [257.06278473, 32.64287418], [254.56271374, 33.13605284], [232.33787765, 24.1916701], [229.87756383, 21.31512103], [226.05497863, 13.36636112], [225.37819027, 11.55738466], [225.16066164, 7.76249421]]]}}, {"type": "Feature", "properties": {"nasa_id": "art002e009841", "utc": "2026-04-06T19:37:36.140Z", "trust": "control_hull", "instrument": "nkd5015"}, "geometry": {"type": "Polygon", "coordinates": [[[225.16256601, 11.12912322], [225.1741305, -14.13480219], [225.33897074, -15.66167627], [229.50165723, -18.73125157], [237.87357198, -24.13559818], [249.9791694, -25.84040316], [259.88977852, -22.09761216], [264.81468643, -20.04961026], [275.73350059, -14.51827819], [286.12574515, -7.98985209], [284.91518647, 1.06761081], [283.54651904, 5.64219061], [282.33154356, 8.11452558], [277.33158185, 14.51979468], [266.5977749, 21.80181631], [262.35622509, 24.36789935], [238.22023915, 21.30952922], [226.05552849, 12.1689905], [225.16256601, 11.12912322]]]}}, {"type": "Feature", "properties": {"nasa_id": "art002e009842", "utc": "2026-04-06T19:37:48.540Z", "trust": "control_hull", "instrument": "nkd5015"}, "geometry": {"type": "Polygon", "coordinates": [[[227.80951879, -10.51430611], [228.40174391, -12.81455474], [232.66269146, -19.26675666], [239.929952, -22.72159875], [246.23336173, -23.17864998], [252.80674378, -23.52980555], [254.67310195, -23.60024984], [258.1485436, -23.68902915], [262.66868061, -22.67038685], [275.74515501, -19.24237918], [286.12574515, -7.98985209], [285.82926805, -2.97784922], [285.5003463, -1.05242828], [284.91518647, 1.06761081], [284.62379426, 1.78855675], [282.64170054, 6.01507078], [270.35968029, 19.29238416], [260.13801015, 25.19125782], [250.03511642, 26.80922367], [235.94223103, 22.95716116], [233.84653526, 20.16863805], [229.4865391, 12.64801124], [228.80325292, 11.31142529], [228.15495517, 2.96853084], [227.97573373, -2.39221767], [227.80951879, -10.51430611]]]}}, {"type": "Feature", "properties": {"nasa_id": "art002e009859", "utc": "2026-04-06T19:38:07.140Z", "trust": "control_hull", "instrument": "nkd5015"}, "geometry": {"type": "Polygon", "coordinates": [[[215.100128, -8.33514546], [237.22668563, -26.6113913], [256.48941452, -25.72701125], [261.59715571, -21.81233574], [269.45215763, -15.26465374], [269.64019775, -12.85231417], [269.81662588, 21.83604607], [260.12177456, 25.1917496], [239.39225952, 19.13656973], [231.81145451, 15.97776056], [227.06510095, 12.44912184], [218.09243103, 2.15902699], [215.100128, -8.33514546]]]}}, {"type": "Feature", "properties": {"nasa_id": "art002e009861", "utc": "2026-04-06T19:38:19.700Z", "trust": "control_hull", "instrument": "nkd5015"}, "geometry": {"type": "Polygon", "coordinates": [[[275.29096486, 22.07256111], [275.31955078, 19.46137769], [275.46617213, 9.33632627], [275.90729614, 7.28847623], [287.36160632, 7.34825187], [290.94857882, 8.12946855], [294.06659896, 9.00978499], [297.26786492, 12.98187052], [297.71436478, 16.06203648], [296.06740443, 18.67420252], [292.0544466, 23.02965832], [284.06778638, 25.3982867], [275.64572198, 25.46067824], [275.36810411, 23.50178307], [275.29096486, 22.07256111]]]}}, {"type": "Feature", "properties": {"nasa_id": "art002e009866", "utc": "2026-04-06T19:38:59.970Z", "trust": "control_hull", "instrument": "nkd5015"}, "geometry": {"type": "Polygon", "coordinates": [[[273.63957843, 7.90237711], [284.42326991, 6.02143002], [287.98691768, 6.48754438], [301.28340231, 10.67947362], [299.28244307, 15.03425945], [295.50309052, 19.63842795], [293.27674984, 21.59219877], [291.30451836, 23.09842964], [278.34555445, 28.8763365], [274.93302139, 25.08711848], [274.17078622, 16.85319042], [274.00510747, 14.31836164], [273.63957843, 7.90237711]]]}}, {"type": "Feature", "properties": {"nasa_id": "art002e009870", "utc": "2026-04-06T19:39:03.670Z", "trust": "control_hull", "instrument": "nkd5015"}, "geometry": {"type": "Polygon", "coordinates": [[[271.22733535, 11.85776776], [271.54538088, 2.92717421], [283.89011751, 1.10437552], [287.89820255, 1.75294575], [295.70743251, 4.81244048], [297.53076001, 6.81225079], [298.4900409, 9.89697495], [296.41734974, 13.99074842], [289.30069058, 19.71343541], [277.82461321, 25.93996864], [273.05714099, 21.99729773], [272.27308577, 20.18518716], [271.63515034, 17.40008966], [271.22733535, 11.85776776]]]}}, {"type": "Feature", "properties": {"nasa_id": "art002e009876", "utc": "2026-04-06T19:39:53.670Z", "trust": "control_hull", "instrument": "nkd5015"}, "geometry": {"type": "Polygon", "coordinates": [[[279.73460518, 2.05862265], [279.96997546, -0.0682933], [280.42811847, -2.22174722], [289.37613808, -5.06938715], [304.80407244, 0.85077628], [303.95744383, 5.45229629], [300.24037983, 8.14108134], [293.31189601, 10.93232624], [282.3342, 12.19854555], [280.00892735, 10.72451178], [279.8988016, 9.81000342], [279.73460518, 2.05862265]]]}}, {"type": "Feature", "properties": {"nasa_id": "art002e009881", "utc": "2026-04-06T19:40:20.100Z", "trust": "control_hull", "instrument": "nkd5015"}, "geometry": {"type": "Polygon", "coordinates": [[[270.16531795, 15.22064338], [270.422128, 9.90349597], [278.00112816, 9.34545715], [287.8939594, 8.69701971], [293.11250635, 9.0031167], [294.68264723, 10.9073304], [295.45428832, 16.14688946], [295.20298402, 17.25479952], [294.33750845, 19.45831153], [287.21028184, 27.68345758], [282.07488793, 27.8483808], [277.82301325, 27.92320357], [272.35357888, 23.58198973], [271.22033344, 22.31584768], [270.16531795, 15.22064338]]]}}, {"type": "Feature", "properties": {"nasa_id": "art002e009884", "utc": "2026-04-06T19:40:29.080Z", "trust": "control_hull", "instrument": "nkd5015"}, "geometry": {"type": "Polygon", "coordinates": [[[270.09738773, 31.71754418], [270.0993444, 28.3769404], [270.18836021, 27.93952908], [273.54608595, 25.61621961], [275.39573496, 24.52188801], [277.82061927, 24.33852989], [286.87445519, 24.0537041], [288.42420747, 24.40781819], [290.06962088, 24.91166901], [292.59061865, 30.44106725], [291.61455206, 32.22586021], [286.51712248, 39.106158], [272.6754491, 44.11921594], [270.35095974, 36.53811273], [270.18278391, 35.39119577], [270.15889198, 34.73227505], [270.09738773, 31.71754418]]]}}, {"type": "Feature", "properties": {"nasa_id": "art002e009934", "utc": "2026-04-06T19:41:16.370Z", "trust": "control_hull", "instrument": "nkd5015"}, "geometry": {"type": "Polygon", "coordinates": [[[216.76140185, -26.77867227], [221.68071717, -35.0775263], [225.53014601, -37.45177435], [229.89945165, -39.73994985], [247.28252161, -47.40320214], [247.3443144, -46.06747828], [247.43024848, -39.44049601], [247.42385393, -31.11227174], [247.13152852, -25.71942566], [246.52886321, -22.55717414], [236.65640135, -21.89799994], [226.75816775, -21.70676744], [218.50076373, -25.21705068], [216.76140185, -26.77867227]]]}}, {"type": "Feature", "properties": {"nasa_id": "art002e009938", "utc": "2026-04-06T19:41:32.680Z", "trust": "control_hull", "instrument": "nkd5015"}, "geometry": {"type": "Polygon", "coordinates": [[[225.15595704, -16.84862935], [225.41382997, -24.29171631], [225.54269137, -25.99116458], [250.85492344, -45.19153856], [252.5995094, -44.29371779], [274.52007868, -32.25420104], [277.61110755, -30.02580934], [280.59997205, -18.48446146], [282.49003407, -8.21778796], [278.50474884, -2.9632579], [274.36682152, -0.2275138], [236.3102326, -0.12739234], [232.68807083, -0.27011214], [227.39402022, -2.83512529], [225.35731999, -5.89339157], [225.15595704, -16.84862935]]]}}, {"type": "Feature", "properties": {"nasa_id": "art002e009943", "utc": "2026-04-06T19:42:32.550Z", "trust": "control_hull", "instrument": "nkd5015"}, "geometry": {"type": "Polygon", "coordinates": [[[273.72837972, 4.42543307], [273.73980084, 3.40312683], [288.88788805, 0.06724308], [290.02023277, 0.09844066], [294.57984659, 3.08810659], [295.71071463, 4.10473198], [299.80173531, 7.91507633], [300.93554611, 11.38435739], [287.55244075, 18.35590849], [275.63814635, 22.70717789], [274.45185422, 14.26488008], [274.00242386, 10.90913388], [273.75147779, 8.46293646], [273.72837972, 4.42543307]]]}}, {"type": "Feature", "properties": {"nasa_id": "art002e009947", "utc": "2026-04-06T19:42:37.180Z", "trust": "control_hull", "instrument": "nkd5015"}, "geometry": {"type": "Polygon", "coordinates": [[[273.28300826, 7.59045925], [273.91394866, 6.23596228], [274.6123301, 4.99035264], [278.77311721, 1.57865745], [285.67501672, 0.06845022], [288.28155753, 0.07512818], [295.79635443, 3.80357948], [296.31996803, 7.27397353], [294.68264723, 10.9073304], [290.76882882, 17.64492379], [284.2361789, 21.76091486], [275.49255331, 23.02877589], [274.00510747, 14.31836164], [273.64669443, 11.30677869], [273.28300826, 7.59045925]]]}}, {"type": "Feature", "properties": {"nasa_id": "art002e009951", "utc": "2026-04-06T19:42:45.140Z", "trust": "control_hull", "instrument": "nkd5015"}, "geometry": {"type": "Polygon", "coordinates": [[[270.09687542, 7.35435764], [270.42947054, 6.24327036], [274.44281582, 0.70672346], [283.54512189, 0.07406589], [285.80791046, 0.63581065], [287.10608538, 1.09441412], [290.34792175, 3.15416666], [293.09572728, 5.99466751], [293.99823929, 7.26546554], [294.59526033, 8.14927547], [294.13838655, 17.56908339], [284.2361789, 21.76091486], [282.77169924, 22.3081859], [280.69692494, 22.39308595], [271.82407445, 22.47848094], [270.09687542, 7.35435764]]]}}, {"type": "Feature", "properties": {"nasa_id": "art002e009955", "utc": "2026-04-06T19:43:30.650Z", "trust": "control_hull", "instrument": "nkd5015"}, "geometry": {"type": "Polygon", "coordinates": [[[258.97524889, 4.49963898], [260.10213756, 1.20259165], [262.7785598, 0.0788462], [264.86825008, 0.0712315], [267.00105454, 0.0665043], [268.7385593, 0.06542269], [272.80906942, 0.07451977], [279.14011333, 0.10765845], [287.55588458, 0.16647079], [292.33290919, 5.84589836], [291.02319253, 11.14603221], [275.82324967, 21.34299717], [270.51105779, 23.26427151], [261.73915348, 22.1439604], [259.73566902, 11.23589727], [258.97524889, 4.49963898]]]}}, {"type": "Feature", "properties": {"nasa_id": "art002e009961", "utc": "2026-04-06T19:43:37.530Z", "trust": "control_hull", "instrument": "nkd5015"}, "geometry": {"type": "Polygon", "coordinates": [[[258.97524889, 4.49963898], [260.39575938, 0.06880271], [268.7385593, 0.06542269], [281.43679939, 0.0711639], [287.19784269, 0.70411361], [291.54080395, 7.66657729], [289.11918287, 12.83502316], [286.50635885, 16.30751523], [280.43051112, 21.61308849], [265.3954679, 25.15196536], [262.43558567, 20.86012154], [261.6531213, 19.4754603], [258.97524889, 4.49963898]]]}}, {"type": "Feature", "properties": {"nasa_id": "art002e009970", "utc": "2026-04-06T19:44:40.850Z", "trust": "control_hull", "instrument": "nkd5015"}, "geometry": {"type": "Polygon", "coordinates": [[[270.8820505, 12.32811679], [282.68379535, 7.13165056], [285.81460327, 6.25650072], [295.70743251, 4.81244048], [297.09956254, 10.51768657], [297.37996311, 15.49431632], [293.54019371, 20.49915717], [289.37504978, 22.78777325], [283.62793425, 23.72946361], [282.41647418, 23.81805754], [276.77711958, 23.81737067], [273.47075345, 18.5863703], [271.83191868, 15.98848726], [270.8820505, 12.32811679]]]}}, {"type": "Feature", "properties": {"nasa_id": "art002e009974", "utc": "2026-04-06T19:45:15.440Z", "trust": "control_hull", "instrument": "nkd5015"}, "geometry": {"type": "Polygon", "coordinates": [[[273.3947787, 3.71660433], [275.61088599, 0.07230828], [285.67501672, 0.06845022], [288.28155753, 0.07512818], [291.01383666, 0.39551058], [294.58898242, 1.82331293], [297.62656959, 5.21926688], [299.80173531, 7.91507633], [294.06761965, 13.82805118], [283.2978049, 18.28197539], [278.69146737, 15.75180622], [275.99556522, 13.84069004], [274.99861824, 10.58306097], [274.34367342, 8.00045079], [273.46273507, 4.10798646], [273.3947787, 3.71660433]]]}}, {"type": "Feature", "properties": {"nasa_id": "art002e009977", "utc": "2026-04-06T19:45:23.940Z", "trust": "control_hull", "instrument": "nkd5015"}, "geometry": {"type": "Polygon", "coordinates": [[[256.72128928, -4.10792851], [257.12488307, -5.4125364], [259.38049832, -7.96856755], [263.66230438, -9.5012157], [276.50100325, -12.10850726], [277.30105927, -11.95582695], [282.16356727, -9.95284184], [283.8941658, -9.0869605], [287.69333563, -6.82280127], [289.38664852, -5.05494722], [291.27063147, -1.83209132], [291.0997946, 5.5311787], [282.86171077, 9.41659691], [260.25596736, 18.11808503], [257.06302665, -1.17667656], [256.72128928, -4.10792851]]]}}, {"type": "Feature", "properties": {"nasa_id": "art002e010003", "utc": "2026-04-06T19:46:15.380Z", "trust": "control_hull", "instrument": "nkd5015"}, "geometry": {"type": "Polygon", "coordinates": [[[227.05385862, 0.90518574], [227.09253495, -7.58001581], [230.37894595, -9.14273704], [234.21009285, -10.02425653], [235.57538272, -10.27418738], [237.69216368, -10.65652307], [245.29093415, -11.9475967], [257.51737852, -13.21104043], [260.30824786, -12.86401112], [262.38769944, -12.6011999], [266.16642632, -11.9467111], [271.34929289, -10.4784472], [276.62017469, -7.08980948], [277.84081831, -6.17570702], [278.52291446, -5.53446301], [280.80697314, -2.97475746], [283.37376009, 4.11554772], [283.02865577, 10.53304083], [281.23638904, 14.66427071], [263.04033346, 33.12840335], [254.56271374, 33.13605284], [251.75546565, 32.86379108], [251.01320451, 32.58443948], [246.00273501, 30.37482193], [236.45314368, 23.75965369], [234.17270778, 22.10022487], [230.00762118, 19.0206572], [228.33311018, 16.15204129], [227.95879725, 15.30669421], [227.26063154, 7.18091643], [227.05385862, 0.90518574]]]}}, {"type": "Feature", "properties": {"nasa_id": "art002e010030", "utc": "2026-04-06T19:46:52.190Z", "trust": "control_hull", "instrument": "nkd5015"}, "geometry": {"type": "Polygon", "coordinates": [[[215.61337696, 6.07657866], [218.15615253, -2.57471059], [218.88147023, -4.88527266], [222.89353198, -9.30967723], [235.77782119, -12.56603154], [243.86556942, -12.05119179], [246.9809066, -3.06735569], [247.40432563, 1.5784619], [247.39719406, 8.12304048], [247.34017862, 14.19535066], [247.113575, 15.6477505], [246.25277339, 16.76018013], [244.66420708, 18.28463022], [243.58388304, 18.92319272], [235.35165028, 20.3307904], [222.84497235, 14.40123127], [217.09645702, 9.34395666], [215.61337696, 6.07657866]]]}}, {"type": "Feature", "properties": {"nasa_id": "art002e010041", "utc": "2026-04-06T19:47:01.700Z", "trust": "control_hull", "instrument": "nkd5015"}, "geometry": {"type": "Polygon", "coordinates": [[[218.7609878, 6.87245256], [219.19900666, 1.35420363], [219.60732611, -0.86385333], [220.58614723, -3.7204479], [223.60974964, -6.6464222], [224.78036358, -7.65787857], [225.26626469, -7.99465889], [233.33734785, -13.4448487], [242.29975785, -14.25422577], [246.30433278, -8.56056349], [246.90436021, -4.75445141], [247.40432563, 1.5784619], [247.40695025, 4.75286401], [247.30833842, 13.02504122], [247.2179239, 18.03389267], [246.69814916, 20.18502857], [244.71255063, 20.31216929], [239.05190604, 18.59555565], [229.07344627, 14.77610623], [226.8358833, 13.83215549], [218.76640143, 8.72192321], [218.7609878, 6.87245256]]]}}]}